[{"OBJECT_NAME":"ICEYE-X30","OBJECT_ID":"2023-084R","EPOCH":"2026-03-09T21:18:40.033440","MEAN_MOTION":15.72701856,"ECCENTRICITY":0.00049319,"INCLINATION":97.5707,"RA_OF_ASC_NODE":220.1726,"ARG_OF_PERICENTER":282.9335,"MEAN_ANOMALY":77.1377,"EPHEMERIS_TYPE":0,"CLASSIFICATION_TYPE":"U","NORAD_CAT_ID":56947,"ELEMENT_SET_NO":999,"REV_AT_EPOCH":15325,"BSTAR":0.00083938221,"MEAN_MOTION_DOT":0.00114026,"MEAN_MOTION_DDOT":0},{"OBJECT_NAME":"STARLINK-11728 [DTC]","OBJECT_ID":"2025-124G","EPOCH":"2026-03-09T21:53:53.786976","MEAN_MOTION":15.70961666,"ECCENTRICITY":0.00010056,"INCLINATION":43.0001,"RA_OF_ASC_NODE":27.4931,"ARG_OF_PERICENTER":261.1065,"MEAN_ANOMALY":98.9689,"EPHEMERIS_TYPE":0,"CLASSIFICATION_TYPE":"U","NORAD_CAT_ID":64323,"ELEMENT_SET_NO":999,"REV_AT_EPOCH":4287,"BSTAR":0.001761399,"MEAN_MOTION_DOT":0.00233208,"MEAN_MOTION_DDOT":0}]
